{"type":"FeatureCollection","features":[{"type":"Feature","id":38,"geometry":{"type":"Point","coordinates":[-74.065678644823606,4.6534929757796801]},"properties":{"OBJECTID":38,"ID":2437,"IDENTIFICA":"1100130291","CODIGO_DE":"23","NOMBRE_DE_":"SUBRED INTEGRADA DE SERVICIOS DE SALUD NORTE E.S.E","NOMBRE_DEL":"UNIDAD DE SERVICIOS DE SALUD CHAPINERO","DIRECCION":"Calle 66 No 15-41","TELEFONO":"4431790","CORREO_ELE":"subrednorte@saludcapital.gov.co","TIPO_DE_PR":"Pública","CLASE_DE_P":"Instituciones Prestadoras de Servicios de Salud - IPS","CODIGO_LOC":12,"CODIGO_UPZ":98}},{"type":"Feature","id":39,"geometry":{"type":"Point","coordinates":[-74.016328799968477,4.6709263997613606]},"properties":{"OBJECTID":39,"ID":2438,"IDENTIFICA":"1100130291","CODIGO_DE":"24","NOMBRE_DE_":"SUBRED INTEGRADA DE SERVICIOS DE SALUD NORTE E.S.E","NOMBRE_DEL":"UNIDAD DE SERVICIOS DE SALUD SAN LUIS","DIRECCION":"Km 5 Vía la Calera","TELEFONO":"4431790","CORREO_ELE":"subrednorte@saludcapital.gov.co","TIPO_DE_PR":"Pública","CLASE_DE_P":"Instituciones Prestadoras de Servicios de Salud - IPS","CODIGO_LOC":2,"CODIGO_UPZ":0}},{"type":"Feature","id":40,"geometry":{"type":"Point","coordinates":[-74.080781900219577,4.6662451998538188]},"properties":{"OBJECTID":40,"ID":2439,"IDENTIFICA":"1100130291","CODIGO_DE":"25","NOMBRE_DE_":"SUBRED INTEGRADA DE SERVICIOS DE SALUD NORTE E.S.E","NOMBRE_DEL":"UNIDAD DE SERVICIOS DE SALUD LORENCITA VILLEGAS DE SANTOS","DIRECCION":"Carrera 54c No 67 Bis -20","TELEFONO":"4431790","CORREO_ELE":"subrednorte@saludcapital.gov.co","TIPO_DE_PR":"Pública","CLASE_DE_P":"Instituciones Prestadoras de Servicios de Salud - IPS","CODIGO_LOC":12,"CODIGO_UPZ":0}},{"type":"Feature","id":41,"geometry":{"type":"Point","coordinates":[-74.016702998589963,4.7344031279458942]},"properties":{"OBJECTID":41,"ID":2440,"IDENTIFICA":"1100130291","CODIGO_DE":"27","NOMBRE_DE_":"SUBRED INTEGRADA DE SERVICIOS DE SALUD NORTE E.S.E","NOMBRE_DEL":"UNIDAD DE SERVICIOS DE SALUD SANTA CECILIA","DIRECCION":"CRA 1 BIS # 163-10","TELEFONO":"4431790","CORREO_ELE":"subrednorte@saludcapital.gov.co","TIPO_DE_PR":"Pública","CLASE_DE_P":"Instituciones Prestadoras de Servicios de Salud - IPS","CODIGO_LOC":1,"CODIGO_UPZ":11}},{"type":"Feature","id":42,"geometry":{"type":"Point","coordinates":[-74.024940379963752,4.7688656102880369]},"properties":{"OBJECTID":42,"ID":2441,"IDENTIFICA":"1100130291","CODIGO_DE":"28","NOMBRE_DE_":"SUBRED INTEGRADA DE SERVICIOS DE SALUD NORTE E.S.E","NOMBRE_DEL":"UNIDAD DE SERVICIOS DE SALUD BUENA VISTA","DIRECCION":"CRA 4 D # 192 A -35","TELEFONO":"4431790","CORREO_ELE":"subrednorte@saludcapital.gov.co","TIPO_DE_PR":"Pública","CLASE_DE_P":"Instituciones Prestadoras de Servicios de Salud - IPS","CODIGO_LOC":1,"CODIGO_UPZ":9}},{"type":"Feature","id":43,"geometry":{"type":"Point","coordinates":[-74.024319290166204,4.7575517097838365]},"properties":{"OBJECTID":43,"ID":2442,"IDENTIFICA":"1100130291","CODIGO_DE":"29","NOMBRE_DE_":"SUBRED INTEGRADA DE SERVICIOS DE SALUD NORTE E.S.E","NOMBRE_DEL":"UNIDAD DE SERVICIOS DE SALUD CODITO","DIRECCION":"CRA 6 # 180C-14","TELEFONO":"4431790","CORREO_ELE":"subrednorte@saludcapital.gov.co","TIPO_DE_PR":"Pública","CLASE_DE_P":"Instituciones Prestadoras de Servicios de Salud - IPS","CODIGO_LOC":1,"CODIGO_UPZ":9}},{"type":"Feature","id":44,"geometry":{"type":"Point","coordinates":[-74.025129020783524,4.7399446823408002]},"properties":{"OBJECTID":44,"ID":2443,"IDENTIFICA":"1100130291","CODIGO_DE":"30","NOMBRE_DE_":"SUBRED INTEGRADA DE SERVICIOS DE SALUD NORTE E.S.E","NOMBRE_DEL":"UNIDAD DE SERVICIOS DE SALUD SAN CRISTÓBAL","DIRECCION":"CALLE 164 # 7F-10","TELEFONO":"4431790","CORREO_ELE":"subrednorte@saludcapital.gov.co","TIPO_DE_PR":"Pública","CLASE_DE_P":"Instituciones Prestadoras de Servicios de Salud - IPS","CODIGO_LOC":1,"CODIGO_UPZ":11}},{"type":"Feature","id":45,"geometry":{"type":"Point","coordinates":[-74.040399884743522,4.7396773206338221]},"properties":{"OBJECTID":45,"ID":2444,"IDENTIFICA":"1100130291","CODIGO_DE":"31","NOMBRE_DE_":"SUBRED INTEGRADA DE SERVICIOS DE SALUD NORTE E.S.E","NOMBRE_DEL":"UNIDAD DE SERVICIOS DE SALUD ORQUÍDEAS","DIRECCION":"CRA 16C # 160-44","TELEFONO":"4431790","CORREO_ELE":"subrednorte@saludcapital.gov.co","TIPO_DE_PR":"Pública","CLASE_DE_P":"Instituciones Prestadoras de Servicios de Salud - IPS","CODIGO_LOC":1,"CODIGO_UPZ":12}},{"type":"Feature","id":46,"geometry":{"type":"Point","coordinates":[-74.038917851374308,4.7658815786751374]},"properties":{"OBJECTID":46,"ID":2445,"IDENTIFICA":"1100130291","CODIGO_DE":"32","NOMBRE_DE_":"SUBRED INTEGRADA DE SERVICIOS DE SALUD NORTE E.S.E","NOMBRE_DEL":"UNIDAD DE SERVICIOS DE SALUD VERBENAL","DIRECCION":"CRA 18 A # 187-91","TELEFONO":"4431790","CORREO_ELE":"subrednorte@saludcapital.gov.co","TIPO_DE_PR":"Pública","CLASE_DE_P":"Instituciones Prestadoras de Servicios de Salud - IPS","CODIGO_LOC":1,"CODIGO_UPZ":9}},{"type":"Feature","id":47,"geometry":{"type":"Point","coordinates":[-74.030504013030949,4.6963449712283722]},"properties":{"OBJECTID":47,"ID":2446,"IDENTIFICA":"1100130291","CODIGO_DE":"33","NOMBRE_DE_":"SUBRED INTEGRADA DE SERVICIOS DE SALUD NORTE E.S.E","NOMBRE_DEL":"UNIDAD DE SERVICIOS DE SALUD USAQUÉN","DIRECCION":"CRA 6 A # 119B-14","TELEFONO":"4431790","CORREO_ELE":"subrednorte@saludcapital.gov.co","TIPO_DE_PR":"Pública","CLASE_DE_P":"Instituciones Prestadoras de Servicios de Salud - IPS","CODIGO_LOC":1,"CODIGO_UPZ":14}},{"type":"Feature","id":48,"geometry":{"type":"Point","coordinates":[-74.1287784402857,4.5733983604134432]},"properties":{"OBJECTID":48,"ID":2447,"IDENTIFICA":"1100130294","CODIGO_DE":"01","NOMBRE_DE_":"SUBRED INTEGRADA DE SERVICIOS DE SALUD SUR E.S.E.","NOMBRE_DEL":"UNIDAD DE SERVICIOS DE SALUD EL TUNAL","DIRECCION":"CR 20 47B-35 SUR","TELEFONO":"7428585 - 7427001","CORREO_ELE":"subredsur@saludcapital.gov.co","TIPO_DE_PR":"Pública","CLASE_DE_P":"Instituciones Prestadoras de Servicios de Salud - IPS","CODIGO_LOC":6,"CODIGO_UPZ":42}},{"type":"Feature","id":49,"geometry":{"type":"Point","coordinates":[-74.138703394955613,4.559554593717082]},"properties":{"OBJECTID":49,"ID":2448,"IDENTIFICA":"1100130294","CODIGO_DE":"02","NOMBRE_DE_":"SUBRED INTEGRADA DE SERVICIOS DE SALUD SUR E.S.E.","NOMBRE_DEL":"UNIDAD DE SERVICIOS DE SALUD MEISSEN","DIRECCION":"KR 18 B No. 60 G - 36 SUR","TELEFONO":"7902651","CORREO_ELE":"subredsur@saludcapital.gov.co","TIPO_DE_PR":"Pública","CLASE_DE_P":"Instituciones Prestadoras de Servicios de Salud - IPS","CODIGO_LOC":19,"CODIGO_UPZ":67}},{"type":"Feature","id":50,"geometry":{"type":"Point","coordinates":[-74.13222790989127,4.5836793901977382]},"properties":{"OBJECTID":50,"ID":2449,"IDENTIFICA":"1100130294","CODIGO_DE":"06","NOMBRE_DE_":"SUBRED INTEGRADA DE SERVICIOS DE SALUD SUR E.S.E.","NOMBRE_DEL":"UNIDAD DE SERVICIOS DE SALUD EL CARMEN - MATERNO INFANTIL","DIRECCION":"CL 48 B SUR No. 28 - 80","TELEFONO":"6059848 6059861","CORREO_ELE":"subredsur@saludcapital.gov.co","TIPO_DE_PR":"Pública","CLASE_DE_P":"Instituciones Prestadoras de Servicios de Salud - IPS","CODIGO_LOC":6,"CODIGO_UPZ":42}},{"type":"Feature","id":13,"geometry":{"type":"Point","coordinates":[-74.106450945052941,4.5455474611513935]},"properties":{"OBJECTID":13,"ID":2412,"IDENTIFICA":"1100130289","CODIGO_DE":"18","NOMBRE_DE_":"SUBRED INTEGRADA DE SERVICIOS DE SALUD CENTRO ORIENTE E.S.E","NOMBRE_DEL":"UNIDAD DE SERVICIOS DE SALUD DIANA TURBAY","DIRECCION":"carrera 1f #48x 40 sur","TELEFONO":"3282828","CORREO_ELE":"subredcentrooriente@saludcapital.gov.co","TIPO_DE_PR":"Pública","CLASE_DE_P":"Instituciones Prestadoras de Servicios de Salud - IPS","CODIGO_LOC":18,"CODIGO_UPZ":55}},{"type":"Feature","id":14,"geometry":{"type":"Point","coordinates":[-74.112214040944124,4.5576801652994146]},"properties":{"OBJECTID":14,"ID":2413,"IDENTIFICA":"1100130289","CODIGO_DE":"19","NOMBRE_DE_":"SUBRED INTEGRADA DE SERVICIOS DE SALUD CENTRO ORIENTE E.S.E","NOMBRE_DEL":"UNIDAD DE SERVICIOS DE SALUD CHIRCALES","DIRECCION":"TRANSVERSAL 5 L BIS NUMERO 48 F- 69 SUR","TELEFONO":"3282828 EXT 21341, 21181,21621","CORREO_ELE":"subcentrooriente@saludcapital.gov.co","TIPO_DE_PR":"Pública","CLASE_DE_P":"Instituciones Prestadoras de Servicios de Salud - IPS","CODIGO_LOC":18,"CODIGO_UPZ":54}},{"type":"Feature","id":15,"geometry":{"type":"Point","coordinates":[-74.105771649814884,4.5837300399878149]},"properties":{"OBJECTID":15,"ID":2414,"IDENTIFICA":"1100130289","CODIGO_DE":"20","NOMBRE_DE_":"SUBRED INTEGRADA DE SERVICIOS DE SALUD CENTRO ORIENTE E.S.E","NOMBRE_DEL":"UNIDAD DE SERVICIOS DE SALUD OLAYA","DIRECCION":"CARRERA 21 NUMERO 22-51 SUR","TELEFONO":"3282828 EXT 24192,24191,24851","CORREO_ELE":"subcentrooriente@saludcapital.gov.co","TIPO_DE_PR":"Pública","CLASE_DE_P":"Instituciones Prestadoras de Servicios de Salud - IPS","CODIGO_LOC":18,"CODIGO_UPZ":39}},{"type":"Feature","id":16,"geometry":{"type":"Point","coordinates":[-74.120045897645824,4.5837694573489802]},"properties":{"OBJECTID":16,"ID":2415,"IDENTIFICA":"1100130289","CODIGO_DE":"21","NOMBRE_DE_":"SUBRED INTEGRADA DE SERVICIOS DE SALUD CENTRO ORIENTE E.S.E","NOMBRE_DEL":"UNIDAD DE SERVICIOS DE SALUD BRAVO PAEZ","DIRECCION":"CALLE 35 B SUR NUMERO 25 A-37","TELEFONO":"7002213","CORREO_ELE":"subcentrooriente@saludcapital.gov.co","TIPO_DE_PR":"Pública","CLASE_DE_P":"Instituciones Prestadoras de Servicios de Salud - IPS","CODIGO_LOC":18,"CODIGO_UPZ":39}},{"type":"Feature","id":17,"geometry":{"type":"Point","coordinates":[-74.120900459585712,4.5716988509688594]},"properties":{"OBJECTID":17,"ID":2416,"IDENTIFICA":"1100130289","CODIGO_DE":"24","NOMBRE_DE_":"SUBRED INTEGRADA DE SERVICIOS DE SALUD CENTRO ORIENTE E.S.E","NOMBRE_DEL":"UNIDAD DE SERVICIOS DE SALUD SAN JORGE","DIRECCION":"DIAGONAL 45 BIS B SUR NUMERO 13 F-72","TELEFONO":"3282828 EXT 29181, 29851","CORREO_ELE":"subcentrooriente@saludcapital.gov.co","TIPO_DE_PR":"Pública","CLASE_DE_P":"Instituciones Prestadoras de Servicios de Salud - IPS","CODIGO_LOC":18,"CODIGO_UPZ":53}},{"type":"Feature","id":18,"geometry":{"type":"Point","coordinates":[-74.086194699862347,4.5871743704077446]},"properties":{"OBJECTID":18,"ID":2417,"IDENTIFICA":"1100130289","CODIGO_DE":"28","NOMBRE_DE_":"SUBRED INTEGRADA DE SERVICIOS DE SALUD CENTRO ORIENTE E.S.E","NOMBRE_DEL":"UNIDAD DE SERVICIOS DE SALUD MATERNO INFANTIL","DIRECCION":"KR 10 # 1 66 SUR PI 1-2, 3 (AUDITORIOS), PI 4 (AREA DENOMINADA ANEXO)","TELEFONO":"3282828 EXT 15131,15941, 15571","CORREO_ELE":"subcentrooriente@saludcapital.gov.co","TIPO_DE_PR":"Pública","CLASE_DE_P":"Instituciones Prestadoras de Servicios de Salud - IPS","CODIGO_LOC":4,"CODIGO_UPZ":33}},{"type":"Feature","id":19,"geometry":{"type":"Point","coordinates":[-74.09441064833176,4.5527688603865544]},"properties":{"OBJECTID":19,"ID":2418,"IDENTIFICA":"1100130289","CODIGO_DE":"29","NOMBRE_DE_":"SUBRED INTEGRADA DE SERVICIOS DE SALUD CENTRO ORIENTE E.S.E","NOMBRE_DEL":"UNIDAD DE SERVICIOS DE SALUD VICTORIA","DIRECCION":"DIAGONAL 39 SUR NUMERO 3-20 ESTE","TELEFONO":"3282828 EXT 14131, 14132, 14192","CORREO_ELE":"subcentrooriente@saludcapital.gov.co","TIPO_DE_PR":"Pública","CLASE_DE_P":"Instituciones Prestadoras de Servicios de Salud - IPS","CODIGO_LOC":4,"CODIGO_UPZ":50}},{"type":"Feature","id":20,"geometry":{"type":"Point","coordinates":[-74.085626575632276,4.5316421817589188]},"properties":{"OBJECTID":20,"ID":2419,"IDENTIFICA":"1100130289","CODIGO_DE":"31","NOMBRE_DE_":"SUBRED INTEGRADA DE SERVICIOS DE SALUD CENTRO ORIENTE E.S.E","NOMBRE_DEL":"LIBERTADORES","DIRECCION":"CALLE 57 SUR NUMERO 15-79 ESTE","TELEFONO":"3282828 EXT 37131, 37191","CORREO_ELE":"gerencia@subredcentrooriente.gov.co","TIPO_DE_PR":"Pública","CLASE_DE_P":"Instituciones Prestadoras de Servicios de Salud - IPS","CODIGO_LOC":4,"CODIGO_UPZ":51}},{"type":"Feature","id":21,"geometry":{"type":"Point","coordinates":[-74.097932134975366,4.5850278317326305]},"properties":{"OBJECTID":21,"ID":2420,"IDENTIFICA":"1100130289","CODIGO_DE":"32","NOMBRE_DE_":"SUBRED INTEGRADA DE SERVICIOS DE SALUD CENTRO ORIENTE E.S.E","NOMBRE_DEL":"ANTONIO NARIÑO","DIRECCION":"CALLE 15 SUR NUMERO 14 50","TELEFONO":"3282828 EXT 36131, 36241,36181","CORREO_ELE":"gerencia@subredcentrooriente.gov.co","TIPO_DE_PR":"Pública","CLASE_DE_P":"Instituciones Prestadoras de Servicios de Salud - IPS","CODIGO_LOC":15,"CODIGO_UPZ":38}},{"type":"Feature","id":22,"geometry":{"type":"Point","coordinates":[-74.023024770231089,4.7424297759298852]},"properties":{"OBJECTID":22,"ID":2421,"IDENTIFICA":"1100130291","CODIGO_DE":"01","NOMBRE_DE_":"SUBRED INTEGRADA DE SERVICIOS DE SALUD NORTE E.S.E","NOMBRE_DEL":"UNIDAD DE SERVICIOS DE SALUD SIMÓN BOLÍVAR","DIRECCION":"CALLE 165 # 7 06","TELEFONO":"4431790","CORREO_ELE":"subrednorte@saludcapital.gov.co","TIPO_DE_PR":"Pública","CLASE_DE_P":"Instituciones Prestadoras de Servicios de Salud - IPS","CODIGO_LOC":1,"CODIGO_UPZ":10}},{"type":"Feature","id":23,"geometry":{"type":"Point","coordinates":[-74.06761909207556,4.6927745389592932]},"properties":{"OBJECTID":23,"ID":2422,"IDENTIFICA":"1100130291","CODIGO_DE":"02","NOMBRE_DE_":"SUBRED INTEGRADA DE SERVICIOS DE SALUD NORTE E.S.E","NOMBRE_DEL":"UNIDAD DE SERVICIOS DE SALUD FRAY BARTOLOMÉ DE LAS CASAS","DIRECCION":"CARRERA 65 # 103 66","TELEFONO":"4431790","CORREO_ELE":"subrednorte@saludcapital.gov.co","TIPO_DE_PR":"Pública","CLASE_DE_P":"Instituciones Prestadoras de Servicios de Salud - IPS","CODIGO_LOC":11,"CODIGO_UPZ":25}},{"type":"Feature","id":24,"geometry":{"type":"Point","coordinates":[-74.109425643352751,4.7112614046737642]},"properties":{"OBJECTID":24,"ID":2423,"IDENTIFICA":"1100130291","CODIGO_DE":"03","NOMBRE_DE_":"SUBRED INTEGRADA DE SERVICIOS DE SALUD NORTE E.S.E","NOMBRE_DEL":"UNIDAD DE SERVICIOS DE SALUD ENGATIVÁ CALLE 80","DIRECCION":"TRANSVERSAL 100 A # 80 A - 50","TELEFONO":"4431790","CORREO_ELE":"subrednorte@saludcapital.gov.co","TIPO_DE_PR":"Pública","CLASE_DE_P":"Instituciones Prestadoras de Servicios de Salud - IPS","CODIGO_LOC":10,"CODIGO_UPZ":72}},{"type":"Feature","id":1,"geometry":{"type":"Point","coordinates":[-74.092429337615854,4.5912873255758333]},"properties":{"OBJECTID":1,"ID":2400,"IDENTIFICA":"1100130289","CODIGO_DE":"01","NOMBRE_DE_":"SUBRED INTEGRADA DE SERVICIOS DE SALUD CENTRO ORIENTE E.S.E","NOMBRE_DEL":"UNIDAD DE SERVICIOS DE SALUD SANTA CLARA","DIRECCION":"CARRERA 14 B NUMERO 1-45 SUR","TELEFONO":"3282828 ext 18191, 18000, 18151","CORREO_ELE":"subcentrooriente@saludcapital.gov.co","TIPO_DE_PR":"Pública","CLASE_DE_P":"Instituciones Prestadoras de Servicios de Salud - IPS","CODIGO_LOC":15,"CODIGO_UPZ":38}},{"type":"Feature","id":2,"geometry":{"type":"Point","coordinates":[-74.083282088623378,4.5697921299719679]},"properties":{"OBJECTID":2,"ID":2401,"IDENTIFICA":"1100130289","CODIGO_DE":"02","NOMBRE_DE_":"SUBRED INTEGRADA DE SERVICIOS DE SALUD CENTRO ORIENTE E.S.E","NOMBRE_DEL":"UNIDAD DE SERVICIOS DE SALUD SAN BLAS","DIRECCION":"TRANSVERSAL 5 ESTE NUMERO 19-50 SUR","TELEFONO":"3282828 EXT 13192, 13941,13620","CORREO_ELE":"subcentrooriente@saludcapital.gov.co","TIPO_DE_PR":"Pública","CLASE_DE_P":"Instituciones Prestadoras de Servicios de Salud - IPS","CODIGO_LOC":4,"CODIGO_UPZ":32}},{"type":"Feature","id":3,"geometry":{"type":"Point","coordinates":[-74.085529320426346,4.5456336502452261]},"properties":{"OBJECTID":3,"ID":2402,"IDENTIFICA":"1100130289","CODIGO_DE":"04","NOMBRE_DE_":"SUBRED INTEGRADA DE SERVICIOS DE SALUD CENTRO ORIENTE E.S.E","NOMBRE_DEL":"UNIDAD DE SERVICIOS DE SALUD ALTAMIRA","DIRECCION":"CARRERA 12 A ESTE NUMERO 42-32 SUR","TELEFONO":"2068718-2634003","CORREO_ELE":"subcentrooriente@saludcapital.gov.co","TIPO_DE_PR":"Pública","CLASE_DE_P":"Instituciones Prestadoras de Servicios de Salud - IPS","CODIGO_LOC":4,"CODIGO_UPZ":50}},{"type":"Feature","id":4,"geometry":{"type":"Point","coordinates":[-74.091948410155453,4.559175867025469]},"properties":{"OBJECTID":4,"ID":2403,"IDENTIFICA":"1100130289","CODIGO_DE":"05","NOMBRE_DE_":"SUBRED INTEGRADA DE SERVICIOS DE SALUD CENTRO ORIENTE E.S.E","NOMBRE_DEL":"UNIDAD DE SERVICIOS DE SALUD BELLO HORIZONTE","DIRECCION":"CARRERA 3 A ESTE NUMERO 31 C-21 SUR","TELEFONO":"3282828 EXT 30131,30651","CORREO_ELE":"subcentrooriente@saludcapital.gov.co","TIPO_DE_PR":"Pública","CLASE_DE_P":"Instituciones Prestadoras de Servicios de Salud - IPS","CODIGO_LOC":4,"CODIGO_UPZ":34}},{"type":"Feature","id":5,"geometry":{"type":"Point","coordinates":[-74.093680503058735,4.5753111420860932]},"properties":{"OBJECTID":5,"ID":2404,"IDENTIFICA":"1100130289","CODIGO_DE":"06","NOMBRE_DE_":"SUBRED INTEGRADA DE SERVICIOS DE SALUD CENTRO ORIENTE E.S.E","NOMBRE_DEL":"UNIDAD DE SERVICIOS DE SALUD PRIMERO DE MAYO","DIRECCION":"CALLE 22 SUR NUMERO 8-A-58","TELEFONO":"3282828 EXT 17131,17161,17652","CORREO_ELE":"subcentrooriente@saludcapital.gov.co","TIPO_DE_PR":"Pública","CLASE_DE_P":"Instituciones Prestadoras de Servicios de Salud - IPS","CODIGO_LOC":4,"CODIGO_UPZ":33}},{"type":"Feature","id":6,"geometry":{"type":"Point","coordinates":[-74.083688367880313,4.5539063788791836]},"properties":{"OBJECTID":6,"ID":2405,"IDENTIFICA":"1100130289","CODIGO_DE":"08","NOMBRE_DE_":"SUBRED INTEGRADA DE SERVICIOS DE SALUD CENTRO ORIENTE E.S.E","NOMBRE_DEL":"UNIDAD DE SERVICIOS DE SALUD LOS ALPES","DIRECCION":"TRANSVERSAL 10 B ESTE NUMERO 36 D-13 SUR","TELEFONO":"3282828 EXT 33651, 33612","CORREO_ELE":"subcentrooriente@saludcapital.gov.co","TIPO_DE_PR":"Pública","CLASE_DE_P":"Instituciones Prestadoras de Servicios de Salud - IPS","CODIGO_LOC":4,"CODIGO_UPZ":32}},{"type":"Feature","id":7,"geometry":{"type":"Point","coordinates":[-74.069574287867866,4.5997748608392266]},"properties":{"OBJECTID":7,"ID":2406,"IDENTIFICA":"1100130289","CODIGO_DE":"10","NOMBRE_DE_":"SUBRED INTEGRADA DE SERVICIOS DE SALUD CENTRO ORIENTE E.S.E","NOMBRE_DEL":"UNIDAD DE SERVICIOS DE SALUD LA CANDELARIA","DIRECCION":"KR 3 # 12 D 23","TELEFONO":"3282828 EXT 28601","CORREO_ELE":"subredcentrooriente@saludcapital.gov.co","TIPO_DE_PR":"Pública","CLASE_DE_P":"Instituciones Prestadoras de Servicios de Salud - IPS","CODIGO_LOC":17,"CODIGO_UPZ":94}},{"type":"Feature","id":8,"geometry":{"type":"Point","coordinates":[-74.079477133202019,4.5866493633884113]},"properties":{"OBJECTID":8,"ID":2407,"IDENTIFICA":"1100130289","CODIGO_DE":"11","NOMBRE_DE_":"SUBRED INTEGRADA DE SERVICIOS DE SALUD CENTRO ORIENTE E.S.E","NOMBRE_DEL":"UNIDAD DE SERVICIOS DE SALUD CRUCES","DIRECCION":"CALLE 1 C NUMERO 5 A 30","TELEFONO":"3282828 EXT 27601","CORREO_ELE":"subcentrooriente@saludcapital.gov.co","TIPO_DE_PR":"Pública","CLASE_DE_P":"Instituciones Prestadoras de Servicios de Salud - IPS","CODIGO_LOC":3,"CODIGO_UPZ":95}},{"type":"Feature","id":9,"geometry":{"type":"Point","coordinates":[-74.067107540148825,4.5858189198423647]},"properties":{"OBJECTID":9,"ID":2408,"IDENTIFICA":"1100130289","CODIGO_DE":"13","NOMBRE_DE_":"SUBRED INTEGRADA DE SERVICIOS DE SALUD CENTRO ORIENTE E.S.E","NOMBRE_DEL":"UNIDAD DE SERVICIOS DE SALUD LACHES","DIRECCION":"DIAGONAL 4 B NUMERO 6 A 11 ESTE","TELEFONO":"3282828 EXT 34551","CORREO_ELE":"subcentrooriente@saludcapital.gov.co","TIPO_DE_PR":"Pública","CLASE_DE_P":"Instituciones Prestadoras de Servicios de Salud - IPS","CODIGO_LOC":3,"CODIGO_UPZ":0}},{"type":"Feature","id":10,"geometry":{"type":"Point","coordinates":[-74.065510110994836,4.6199867809323418]},"properties":{"OBJECTID":10,"ID":2409,"IDENTIFICA":"1100130289","CODIGO_DE":"15","NOMBRE_DE_":"SUBRED INTEGRADA DE SERVICIOS DE SALUD CENTRO ORIENTE E.S.E","NOMBRE_DEL":"UNIDAD DE SERVICIOS DE SALUD PERSEVERANCIA","DIRECCION":"CARRERA 5 NUMERO 33 A-45","TELEFONO":"3282828 ETX 25181,25191","CORREO_ELE":"subcentrooriente@saludcapital.gov.co","TIPO_DE_PR":"Pública","CLASE_DE_P":"Instituciones Prestadoras de Servicios de Salud - IPS","CODIGO_LOC":3,"CODIGO_UPZ":91}},{"type":"Feature","id":11,"geometry":{"type":"Point","coordinates":[-74.08160974985617,4.6167628903921107]},"properties":{"OBJECTID":11,"ID":2410,"IDENTIFICA":"1100130289","CODIGO_DE":"16","NOMBRE_DE_":"SUBRED INTEGRADA DE SERVICIOS DE SALUD CENTRO ORIENTE E.S.E","NOMBRE_DEL":"UNIDAD DE SERVICIOS DE SALUD SAMPER MENDOZA","DIRECCION":"CARRERA 22 NUMERO 22 A -26","TELEFONO":"3282828 EXT 19191,19181,19611","CORREO_ELE":"subredcentrooriente@saludcapital.gov.co","TIPO_DE_PR":"Pública","CLASE_DE_P":"Instituciones Prestadoras de Servicios de Salud - IPS","CODIGO_LOC":14,"CODIGO_UPZ":102}},{"type":"Feature","id":12,"geometry":{"type":"Point","coordinates":[-74.077603505335802,4.5785824703305904]},"properties":{"OBJECTID":12,"ID":2411,"IDENTIFICA":"1100130289","CODIGO_DE":"17","NOMBRE_DE_":"SUBRED INTEGRADA DE SERVICIOS DE SALUD CENTRO ORIENTE E.S.E","NOMBRE_DEL":"UNIDAD DE SERVICIOS DE SALUD JORGE ELIECER GAITAN","DIRECCION":"CARRERA 4 A ESTE # 5-20","TELEFONO":"3282828 ETX 16912, 16611,16571","CORREO_ELE":"subcentrooriente@saludcapital.gov.co","TIPO_DE_PR":"Pública","CLASE_DE_P":"Instituciones Prestadoras de Servicios de Salud - IPS","CODIGO_LOC":3,"CODIGO_UPZ":0}},{"type":"Feature","id":25,"geometry":{"type":"Point","coordinates":[-74.140432668047197,4.715286266220974]},"properties":{"OBJECTID":25,"ID":2424,"IDENTIFICA":"1100130291","CODIGO_DE":"04","NOMBRE_DE_":"SUBRED INTEGRADA DE SERVICIOS DE SALUD NORTE E.S.E","NOMBRE_DEL":"UNIDAD DE SERVICIOS DE SALUD EMAUS","DIRECCION":"CALLE 64 C # 121 - 76","TELEFONO":"4431790","CORREO_ELE":"subrednorte@saludcapital.gov.co","TIPO_DE_PR":"Pública","CLASE_DE_P":"Instituciones Prestadoras de Servicios de Salud - IPS","CODIGO_LOC":10,"CODIGO_UPZ":74}},{"type":"Feature","id":26,"geometry":{"type":"Point","coordinates":[-74.099329529078517,4.6860889658501623]},"properties":{"OBJECTID":26,"ID":2425,"IDENTIFICA":"1100130291","CODIGO_DE":"06","NOMBRE_DE_":"SUBRED INTEGRADA DE SERVICIOS DE SALUD NORTE E.S.E","NOMBRE_DEL":"UNIDAD DE SERVICIOS DE SALUD BOYACÁ REAL","DIRECCION":"CARRERA 74 A # 69 A - 38","TELEFONO":"4431790","CORREO_ELE":"subrednorte@saludcapital.gov.co","TIPO_DE_PR":"Pública","CLASE_DE_P":"Instituciones Prestadoras de Servicios de Salud - IPS","CODIGO_LOC":10,"CODIGO_UPZ":30}},{"type":"Feature","id":27,"geometry":{"type":"Point","coordinates":[-74.103753260237283,4.7163619704433124]},"properties":{"OBJECTID":27,"ID":2426,"IDENTIFICA":"1100130291","CODIGO_DE":"07","NOMBRE_DE_":"SUBRED INTEGRADA DE SERVICIOS DE SALUD NORTE E.S.E","NOMBRE_DEL":"UNIDAD DE SERVICIOS DE SALUD BACHUÉ","DIRECCION":"CALLE 88 # 95 F - 00","TELEFONO":"4431790","CORREO_ELE":"subrednorte@saludcapital.gov.co","TIPO_DE_PR":"Pública","CLASE_DE_P":"Instituciones Prestadoras de Servicios de Salud - IPS","CODIGO_LOC":10,"CODIGO_UPZ":29}},{"type":"Feature","id":28,"geometry":{"type":"Point","coordinates":[-74.120817689713761,4.7104999201757662]},"properties":{"OBJECTID":28,"ID":2427,"IDENTIFICA":"1100130291","CODIGO_DE":"08","NOMBRE_DE_":"SUBRED INTEGRADA DE SERVICIOS DE SALUD NORTE E.S.E","NOMBRE_DEL":"UNIDAD DE SERVICIOS DE SALUD GARCES NAVAS","DIRECCION":"CARRERA 107 # 75 B - 08","TELEFONO":"4431790","CORREO_ELE":"subrednorte@saludcapital.gov.co","TIPO_DE_PR":"Pública","CLASE_DE_P":"Instituciones Prestadoras de Servicios de Salud - IPS","CODIGO_LOC":10,"CODIGO_UPZ":73}},{"type":"Feature","id":29,"geometry":{"type":"Point","coordinates":[-74.096176190004655,4.7133412196300268]},"properties":{"OBJECTID":29,"ID":2428,"IDENTIFICA":"1100130291","CODIGO_DE":"09","NOMBRE_DE_":"SUBRED INTEGRADA DE SERVICIOS DE SALUD NORTE E.S.E","NOMBRE_DEL":"UNIDAD DE SERVICIOS DE SALUD QUIRIGUA","DIRECCION":"CALLE 91 # 89 A -20","TELEFONO":"4431790","CORREO_ELE":"subrednorte@saludcapital.gov.co","TIPO_DE_PR":"Pública","CLASE_DE_P":"Instituciones Prestadoras de Servicios de Salud - IPS","CODIGO_LOC":10,"CODIGO_UPZ":29}},{"type":"Feature","id":30,"geometry":{"type":"Point","coordinates":[-74.090674467928537,4.6778695527100984]},"properties":{"OBJECTID":30,"ID":2429,"IDENTIFICA":"1100130291","CODIGO_DE":"10","NOMBRE_DE_":"SUBRED INTEGRADA DE SERVICIOS DE SALUD NORTE E.S.E","NOMBRE_DEL":"UNIDAD DE SERVICIOS DE SALUD BELLAVISTA","DIRECCION":"CARRERA 69 # 68 A - 34","TELEFONO":"4431790","CORREO_ELE":"subrednorte@saludcapital.gov.co","TIPO_DE_PR":"Pública","CLASE_DE_P":"Instituciones Prestadoras de Servicios de Salud - IPS","CODIGO_LOC":10,"CODIGO_UPZ":26}},{"type":"Feature","id":31,"geometry":{"type":"Point","coordinates":[-74.1205881009884,4.6955706183840409]},"properties":{"OBJECTID":31,"ID":2430,"IDENTIFICA":"1100130291","CODIGO_DE":"12","NOMBRE_DE_":"SUBRED INTEGRADA DE SERVICIOS DE SALUD NORTE E.S.E","NOMBRE_DEL":"UNIDAD DE SERVICIOS DE SALUD ALAMOS","DIRECCION":"CARRERA 97 A # 65 - 63","TELEFONO":"4431790","CORREO_ELE":"subrednorte@saludcapital.gov.co","TIPO_DE_PR":"Pública","CLASE_DE_P":"Instituciones Prestadoras de Servicios de Salud - IPS","CODIGO_LOC":10,"CODIGO_UPZ":116}},{"type":"Feature","id":32,"geometry":{"type":"Point","coordinates":[-74.099104710407289,4.7044765637660158]},"properties":{"OBJECTID":32,"ID":2431,"IDENTIFICA":"1100130291","CODIGO_DE":"13","NOMBRE_DE_":"SUBRED INTEGRADA DE SERVICIOS DE SALUD NORTE E.S.E","NOMBRE_DEL":"UNIDAD DE SERVICIOS DE SALUD ESPAÑOLA","DIRECCION":"CALLE 83 # 85 A - 17","TELEFONO":"4431790","CORREO_ELE":"subrednorte@saludcapital.gov.co","TIPO_DE_PR":"Pública","CLASE_DE_P":"Instituciones Prestadoras de Servicios de Salud - IPS","CODIGO_LOC":10,"CODIGO_UPZ":29}},{"type":"Feature","id":33,"geometry":{"type":"Point","coordinates":[-74.095909700284054,4.7549194404263497]},"properties":{"OBJECTID":33,"ID":2432,"IDENTIFICA":"1100130291","CODIGO_DE":"14","NOMBRE_DE_":"SUBRED INTEGRADA DE SERVICIOS DE SALUD NORTE E.S.E","NOMBRE_DEL":"UNIDAD DE SERVICIOS DE SALUD CENTRO DE SERVICIOS ESPECIALIZADO","DIRECCION":"KR 104 Nº 152C-50","TELEFONO":"4431790","CORREO_ELE":"subrednorte@saludcapital.gov.co","TIPO_DE_PR":"Pública","CLASE_DE_P":"Instituciones Prestadoras de Servicios de Salud - IPS","CODIGO_LOC":11,"CODIGO_UPZ":27}},{"type":"Feature","id":34,"geometry":{"type":"Point","coordinates":[-74.084136620918869,4.7435875716390532]},"properties":{"OBJECTID":34,"ID":2433,"IDENTIFICA":"1100130291","CODIGO_DE":"15","NOMBRE_DE_":"SUBRED INTEGRADA DE SERVICIOS DE SALUD NORTE E.S.E","NOMBRE_DEL":"UNIDAD DE SERVICIOS DE SALUD SUBA","DIRECCION":"CARRERA 92 Nº 147C-30","TELEFONO":"4431790","CORREO_ELE":"subrednorte@saludcapital.gov.co","TIPO_DE_PR":"Pública","CLASE_DE_P":"Instituciones Prestadoras de Servicios de Salud - IPS","CODIGO_LOC":11,"CODIGO_UPZ":27}},{"type":"Feature","id":35,"geometry":{"type":"Point","coordinates":[-74.110283432041157,4.7409016410080982]},"properties":{"OBJECTID":35,"ID":2434,"IDENTIFICA":"1100130291","CODIGO_DE":"16","NOMBRE_DE_":"SUBRED INTEGRADA DE SERVICIOS DE SALUD NORTE E.S.E","NOMBRE_DEL":"UNIDAD DE SERVICIOS DE SALUD GAITANA I","DIRECCION":"TRANSVERSAL 116C Nº133-18","TELEFONO":"4431790","CORREO_ELE":"subrednorte@saludcapital.gov.co","TIPO_DE_PR":"Pública","CLASE_DE_P":"Instituciones Prestadoras de Servicios de Salud - IPS","CODIGO_LOC":11,"CODIGO_UPZ":0}},{"type":"Feature","id":36,"geometry":{"type":"Point","coordinates":[-74.060719678553923,4.7136675580260876]},"properties":{"OBJECTID":36,"ID":2435,"IDENTIFICA":"1100130291","CODIGO_DE":"17","NOMBRE_DE_":"SUBRED INTEGRADA DE SERVICIOS DE SALUD NORTE E.S.E","NOMBRE_DEL":"UNIDAD DE SERVICIOS DE SALUD PRADO VERANIEGO","DIRECCION":"CALLE 128A Nº53A-17","TELEFONO":"4431790","CORREO_ELE":"subrednorte@saludcapital.gov.co","TIPO_DE_PR":"Pública","CLASE_DE_P":"Instituciones Prestadoras de Servicios de Salud - IPS","CODIGO_LOC":11,"CODIGO_UPZ":19}},{"type":"Feature","id":37,"geometry":{"type":"Point","coordinates":[-74.093144480125332,4.7260556309945407]},"properties":{"OBJECTID":37,"ID":2436,"IDENTIFICA":"1100130291","CODIGO_DE":"18","NOMBRE_DE_":"SUBRED INTEGRADA DE SERVICIOS DE SALUD NORTE E.S.E","NOMBRE_DEL":"UNIDAD DE SERVICIOS DE SALUD RINCON","DIRECCION":"CARRERA 94B Nº129B-04","TELEFONO":"4431790","CORREO_ELE":"subrednorte@saludcapital.gov.co","TIPO_DE_PR":"Pública","CLASE_DE_P":"Instituciones Prestadoras de Servicios de Salud - IPS","CODIGO_LOC":11,"CODIGO_UPZ":28}},{"type":"Feature","id":51,"geometry":{"type":"Point","coordinates":[-74.126755380366944,4.5646001399357976]},"properties":{"OBJECTID":51,"ID":2450,"IDENTIFICA":"1100130294","CODIGO_DE":"07","NOMBRE_DE_":"SUBRED INTEGRADA DE SERVICIOS DE SALUD SUR E.S.E.","NOMBRE_DEL":"UNIDAD DE SERVICIOS DE SALUD AMBULATORIA TUNJUELITO","DIRECCION":"AV CARACAS No. 51 - 21 SUR","TELEFONO":"6053635 6058229","CORREO_ELE":"subredsur@saludcapital.gov.co","TIPO_DE_PR":"Pública","CLASE_DE_P":"Instituciones Prestadoras de Servicios de Salud - IPS","CODIGO_LOC":6,"CODIGO_UPZ":62}},{"type":"Feature","id":52,"geometry":{"type":"Point","coordinates":[-74.137255428396898,4.5661178601442058]},"properties":{"OBJECTID":52,"ID":2451,"IDENTIFICA":"1100130294","CODIGO_DE":"10","NOMBRE_DE_":"SUBRED INTEGRADA DE SERVICIOS DE SALUD SUR E.S.E.","NOMBRE_DEL":"UNIDAD DE SERVICIOS DE SALUD SAN BENITO","DIRECCION":"CL 58 SUR No. 19 B - 25","TELEFONO":"7142722 N7141963","CORREO_ELE":"subredsur@saludcapital.gov.co","TIPO_DE_PR":"Pública","CLASE_DE_P":"Instituciones Prestadoras de Servicios de Salud - IPS","CODIGO_LOC":6,"CODIGO_UPZ":62}},{"type":"Feature","id":53,"geometry":{"type":"Point","coordinates":[-74.125977936099247,4.5590926113319279]},"properties":{"OBJECTID":53,"ID":2452,"IDENTIFICA":"1100130294","CODIGO_DE":"12","NOMBRE_DE_":"SUBRED INTEGRADA DE SERVICIOS DE SALUD SUR E.S.E.","NOMBRE_DEL":"UNIDAD DE SERVICIOS DE SALUD AMBULATORIA - ABRAHAM LINCON","DIRECCION":"KR 12 No. 53 - 90 SUR","TELEFONO":"7691397","CORREO_ELE":"subredsur@saludcapital.gov.co","TIPO_DE_PR":"Pública","CLASE_DE_P":"Instituciones Prestadoras de Servicios de Salud - IPS","CODIGO_LOC":6,"CODIGO_UPZ":62}},{"type":"Feature","id":54,"geometry":{"type":"Point","coordinates":[-74.163036016140779,4.5722626565546598]},"properties":{"OBJECTID":54,"ID":2453,"IDENTIFICA":"1100130294","CODIGO_DE":"13","NOMBRE_DE_":"SUBRED INTEGRADA DE SERVICIOS DE SALUD SUR E.S.E.","NOMBRE_DEL":"UNIDAD DE SERVICIOS DE SALUD JERUSALEN","DIRECCION":"CL 77 No. 85 B - 13 SUR","TELEFONO":"7300000 ext 3500","CORREO_ELE":"subredsur@saludcapital.gov.co","TIPO_DE_PR":"Pública","CLASE_DE_P":"Instituciones Prestadoras de Servicios de Salud - IPS","CODIGO_LOC":19,"CODIGO_UPZ":0}},{"type":"Feature","id":55,"geometry":{"type":"Point","coordinates":[-74.158374170346278,4.5705827298864303]},"properties":{"OBJECTID":55,"ID":2454,"IDENTIFICA":"1100130294","CODIGO_DE":"14","NOMBRE_DE_":"SUBRED INTEGRADA DE SERVICIOS DE SALUD SUR E.S.E.","NOMBRE_DEL":"UNIDAD DE SERVICIOS DE SALUD MANUELA BELTRÁN I","DIRECCION":"KR 44D No. 69I 16 SUR","TELEFONO":"7300000 EXT11300 / 7313718","CORREO_ELE":"subredsur@saludcapital.gov.co","TIPO_DE_PR":"Pública","CLASE_DE_P":"Instituciones Prestadoras de Servicios de Salud - IPS","CODIGO_LOC":19,"CODIGO_UPZ":70}},{"type":"Feature","id":56,"geometry":{"type":"Point","coordinates":[-74.157052830310036,4.5799693397304386]},"properties":{"OBJECTID":56,"ID":2455,"IDENTIFICA":"1100130294","CODIGO_DE":"15","NOMBRE_DE_":"SUBRED INTEGRADA DE SERVICIOS DE SALUD SUR E.S.E.","NOMBRE_DEL":"UNIDAD DE SERVICIOS DE SALUD CANDELARIA LA NUEVA","DIRECCION":"AK 51 # 59C 40 SUR","TELEFONO":"7300000 ext 1300","CORREO_ELE":"subredsur@saludcapital.gov.co","TIPO_DE_PR":"Pública","CLASE_DE_P":"Instituciones Prestadoras de Servicios de Salud - IPS","CODIGO_LOC":19,"CODIGO_UPZ":65}},{"type":"Feature","id":57,"geometry":{"type":"Point","coordinates":[-74.146019543225748,4.544975290424845]},"properties":{"OBJECTID":57,"ID":2456,"IDENTIFICA":"1100130294","CODIGO_DE":"16","NOMBRE_DE_":"SUBRED INTEGRADA DE SERVICIOS DE SALUD SUR E.S.E.","NOMBRE_DEL":"UNIDAD DE SERVICIOS DE SALUD LA ESTRELLA","DIRECCION":"KR 18 F No. 72 - 45 SUR","TELEFONO":"7300000 ext 7500 / 7665048","CORREO_ELE":"subredsur@saludcapital.gov.co","TIPO_DE_PR":"Pública","CLASE_DE_P":"Instituciones Prestadoras de Servicios de Salud - IPS","CODIGO_LOC":19,"CODIGO_UPZ":67}},{"type":"Feature","id":58,"geometry":{"type":"Point","coordinates":[-74.074102428415472,4.5882692580866253]},"properties":{"OBJECTID":58,"ID":2457,"IDENTIFICA":"1100130294","CODIGO_DE":"17","NOMBRE_DE_":"SUBRED INTEGRADA DE SERVICIOS DE SALUD SUR E.S.E.","NOMBRE_DEL":"UNIDAD DE SERVICIOS DE SALUD PASQUILLA","DIRECCION":"KR 1 No. 3 - 29 PASQUILLA","TELEFONO":"7300000 ext 16500 /6392028","CORREO_ELE":"subredsur@saludcapital.gov.co","TIPO_DE_PR":"Pública","CLASE_DE_P":"Instituciones Prestadoras de Servicios de Salud - IPS","CODIGO_LOC":3,"CODIGO_UPZ":96}},{"type":"Feature","id":59,"geometry":{"type":"Point","coordinates":[-74.076860958820276,4.5895629413871832]},"properties":{"OBJECTID":59,"ID":2458,"IDENTIFICA":"1100130294","CODIGO_DE":"18","NOMBRE_DE_":"SUBRED INTEGRADA DE SERVICIOS DE SALUD SUR E.S.E.","NOMBRE_DEL":"UNIDAD DE SERVICIOS DE SALUD MOCHUELO","DIRECCION":"KR 4 No. 3 - 29 PASQUILLA","TELEFONO":"7300000 ext 15500 / 2009060","CORREO_ELE":"subredsur@saludcapital.gov.co","TIPO_DE_PR":"Pública","CLASE_DE_P":"Instituciones Prestadoras de Servicios de Salud - IPS","CODIGO_LOC":3,"CODIGO_UPZ":95}},{"type":"Feature","id":60,"geometry":{"type":"Point","coordinates":[-74.144693366660007,4.552658624006952]},"properties":{"OBJECTID":60,"ID":2459,"IDENTIFICA":"1100130294","CODIGO_DE":"28","NOMBRE_DE_":"SUBRED INTEGRADA DE SERVICIOS DE SALUD SUR E.S.E.","NOMBRE_DEL":"UNIDAD DE SERVICIOS DE SALUD VISTA HERMOSA","DIRECCION":"KR 18 C No. 66 A - 55 SUR","TELEFONO":"7300000 ext 2500 - 2000 -2501","CORREO_ELE":"subredsur@saludcapital.gov.co","TIPO_DE_PR":"Pública","CLASE_DE_P":"Instituciones Prestadoras de Servicios de Salud - IPS","CODIGO_LOC":19,"CODIGO_UPZ":67}},{"type":"Feature","id":61,"geometry":{"type":"Point","coordinates":[-74.121776170562356,4.4731311925901966]},"properties":{"OBJECTID":61,"ID":2460,"IDENTIFICA":"1100130294","CODIGO_DE":"30","NOMBRE_DE_":"SUBRED INTEGRADA DE SERVICIOS DE SALUD SUR E.S.E.","NOMBRE_DEL":"UNIDAD DE SERVICIOS DE SALUD USME","DIRECCION":"KR 13 No. 135 A - 42 SUR","TELEFONO":"7660666 Ext 1033","CORREO_ELE":"subredsur@saludcapital.gov.co","TIPO_DE_PR":"Pública","CLASE_DE_P":"Instituciones Prestadoras de Servicios de Salud - IPS","CODIGO_LOC":5,"CODIGO_UPZ":61}},{"type":"Feature","id":62,"geometry":{"type":"Point","coordinates":[-74.113481829711347,4.514656479970955]},"properties":{"OBJECTID":62,"ID":2461,"IDENTIFICA":"1100130294","CODIGO_DE":"31","NOMBRE_DE_":"SUBRED INTEGRADA DE SERVICIOS DE SALUD SUR E.S.E.","NOMBRE_DEL":"UNIDAD DE SERVICIOS DE SALUD SANTA LIBRADA I","DIRECCION":"KR 9 B No. 75 - 49 SUR","TELEFONO":"7660666 EXT 1062","CORREO_ELE":"subredsur@saludcapital.gov.co","TIPO_DE_PR":"Pública","CLASE_DE_P":"Instituciones Prestadoras de Servicios de Salud - IPS","CODIGO_LOC":5,"CODIGO_UPZ":57}},{"type":"Feature","id":63,"geometry":{"type":"Point","coordinates":[-74.102076728134335,4.5010450169982938]},"properties":{"OBJECTID":63,"ID":2462,"IDENTIFICA":"1100130294","CODIGO_DE":"32","NOMBRE_DE_":"SUBRED INTEGRADA DE SERVICIOS DE SALUD SUR E.S.E.","NOMBRE_DEL":"UNIDAD DE SERVICIOS DE SALUD LA REFORMA","DIRECCION":"KR 6 B ESTE No. 89 - 44 SUR","TELEFONO":"7660666 EXT 1078","CORREO_ELE":"subredsur@saludcapital.gov.co","TIPO_DE_PR":"Pública","CLASE_DE_P":"Instituciones Prestadoras de Servicios de Salud - IPS","CODIGO_LOC":5,"CODIGO_UPZ":59}},{"type":"Feature","id":116,"geometry":{"type":"Point","coordinates":[-74.200138470262416,4.6173571997461487]},"properties":{"OBJECTID":116,"ID":2515,"IDENTIFICA":"1100130296","CODIGO_DE":"52","NOMBRE_DE_":"Subred Integrada de Servicios de Salud Sur Occidente E.S.E","NOMBRE_DEL":"Unidad de servicios de salud Villa Javier","DIRECCION":"Carrera 86 No 74 - 80 Sur","TELEFONO":"6013849160","CORREO_ELE":"gerente@subredsuroccidente.gov.co","TIPO_DE_PR":"Pública","CLASE_DE_P":"Instituciones Prestadoras de Servicios de Salud - IPS","CODIGO_LOC":7,"CODIGO_UPZ":84}},{"type":"Feature","id":117,"geometry":{"type":"Point","coordinates":[-74.148434445576484,4.6522313751312554]},"properties":{"OBJECTID":117,"ID":2516,"IDENTIFICA":"1100130296","CODIGO_DE":"53","NOMBRE_DE_":"Subred Integrada de Servicios de Salud Sur Occidente E.S.E","NOMBRE_DEL":"Unidad de Servicios de Salud Tintal","DIRECCION":"Calle 10B # 87B - 51","TELEFONO":"6013849160","CORREO_ELE":"gerente@subredsuroccident e.gov.co","TIPO_DE_PR":"Pública","CLASE_DE_P":"Instituciones Prestadoras de Servicios de Salud - IPS","CODIGO_LOC":8,"CODIGO_UPZ":78}},{"type":"Feature","id":64,"geometry":{"type":"Point","coordinates":[-74.1103054335791,4.5121200930226477]},"properties":{"OBJECTID":64,"ID":2463,"IDENTIFICA":"1100130294","CODIGO_DE":"33","NOMBRE_DE_":"SUBRED INTEGRADA DE SERVICIOS DE SALUD SUR E.S.E.","NOMBRE_DEL":"UNIDAD DE SERVICIOS DE SALUD BETANIA","DIRECCION":"CL 76 B SUR No. 7 - 64","TELEFONO":"7660666 EXT 1068","CORREO_ELE":"subredsur@saludcapital.gov.co","TIPO_DE_PR":"Pública","CLASE_DE_P":"Instituciones Prestadoras de Servicios de Salud - IPS","CODIGO_LOC":5,"CODIGO_UPZ":57}},{"type":"Feature","id":65,"geometry":{"type":"Point","coordinates":[-74.116598114178046,4.5133440260536437]},"properties":{"OBJECTID":65,"ID":2464,"IDENTIFICA":"1100130294","CODIGO_DE":"34","NOMBRE_DE_":"SUBRED INTEGRADA DE SERVICIOS DE SALUD SUR E.S.E.","NOMBRE_DEL":"UNIDAD DE SERVICIOS DE SALUD MARICHUELA","DIRECCION":"CL 76 SUR No. 14 - 74","TELEFONO":"7660666 EXT 1139","CORREO_ELE":"subredsur@saludcapital.gov.co","TIPO_DE_PR":"Pública","CLASE_DE_P":"Instituciones Prestadoras de Servicios de Salud - IPS","CODIGO_LOC":5,"CODIGO_UPZ":57}},{"type":"Feature","id":66,"geometry":{"type":"Point","coordinates":[-74.112481305910833,4.5080155997796769]},"properties":{"OBJECTID":66,"ID":2465,"IDENTIFICA":"1100130294","CODIGO_DE":"35","NOMBRE_DE_":"SUBRED INTEGRADA DE SERVICIOS DE SALUD SUR E.S.E.","NOMBRE_DEL":"UNIDAD DE SERVICIOS DE SALUD YOMASA","DIRECCION":"KR 10 No. 81 A - 06 SUR","TELEFONO":"7660666 EXT 1064","CORREO_ELE":"subredsur@saludcapital.gov.co","TIPO_DE_PR":"Pública","CLASE_DE_P":"Instituciones Prestadoras de Servicios de Salud - IPS","CODIGO_LOC":5,"CODIGO_UPZ":57}},{"type":"Feature","id":67,"geometry":{"type":"Point","coordinates":[-74.150009999854987,4.4000198996485347]},"properties":{"OBJECTID":67,"ID":2466,"IDENTIFICA":"1100130294","CODIGO_DE":"36","NOMBRE_DE_":"SUBRED INTEGRADA DE SERVICIOS DE SALUD SUR E.S.E.","NOMBRE_DEL":"UNIDAD DE SERVICIOS DE SALUD DESTINO","DIRECCION":"LA REGADERA 96 LA REGADERA","TELEFONO":"7660666 EXT 1108","CORREO_ELE":"subredsur@saludcapital.gov.co","TIPO_DE_PR":"Pública","CLASE_DE_P":"Instituciones Prestadoras de Servicios de Salud - IPS","CODIGO_LOC":5,"CODIGO_UPZ":0}},{"type":"Feature","id":68,"geometry":{"type":"Point","coordinates":[-74.089938338079065,4.5161542400820398]},"properties":{"OBJECTID":68,"ID":2467,"IDENTIFICA":"1100130294","CODIGO_DE":"38","NOMBRE_DE_":"SUBRED INTEGRADA DE SERVICIOS DE SALUD SUR E.S.E.","NOMBRE_DEL":"UNIDAD DE SERVICIOS DE SALUD LA FLORA","DIRECCION":"KR 14 B ESTE No. 74 B - 44 SUR","TELEFONO":"7660666 EXT 1092","CORREO_ELE":"subredsur@saludcapital.gov.co","TIPO_DE_PR":"Pública","CLASE_DE_P":"Instituciones Prestadoras de Servicios de Salud - IPS","CODIGO_LOC":5,"CODIGO_UPZ":52}},{"type":"Feature","id":69,"geometry":{"type":"Point","coordinates":[-74.148774330350747,4.573911749684564]},"properties":{"OBJECTID":69,"ID":2468,"IDENTIFICA":"1100130294","CODIGO_DE":"41","NOMBRE_DE_":"SUBRED INTEGRADA DE SERVICIOS DE SALUD SUR E.S.E.","NOMBRE_DEL":"UNIDAD DE SERVICIOS DE SALUD DANUBIO AZUL","DIRECCION":"KR 41 No. 55 - 65 SUR","TELEFONO":"7660666 EXT 1097","CORREO_ELE":"subredsur@saludcapital.gov.co","TIPO_DE_PR":"Pública","CLASE_DE_P":"Instituciones Prestadoras de Servicios de Salud - IPS","CODIGO_LOC":19,"CODIGO_UPZ":65}},{"type":"Feature","id":70,"geometry":{"type":"Point","coordinates":[-74.317069200067593,4.029432000285242]},"properties":{"OBJECTID":70,"ID":2469,"IDENTIFICA":"1100130294","CODIGO_DE":"46","NOMBRE_DE_":"SUBRED INTEGRADA DE SERVICIOS DE SALUD SUR E.S.E.","NOMBRE_DEL":"UNIDAD DE SERVICIOS DE SALUD SAN JUAN DE SUMAPÁZ","DIRECCION":"Corregimiento San Juan de Sumapáz","TELEFONO":"3212302947","CORREO_ELE":"subredsur@saludcapital.gov.co","TIPO_DE_PR":"Pública","CLASE_DE_P":"Instituciones Prestadoras de Servicios de Salud - IPS","CODIGO_LOC":20,"CODIGO_UPZ":0}},{"type":"Feature","id":71,"geometry":{"type":"Point","coordinates":[-74.157114799691584,4.1716290000109781]},"properties":{"OBJECTID":71,"ID":2470,"IDENTIFICA":"1100130294","CODIGO_DE":"49","NOMBRE_DE_":"SUBRED INTEGRADA DE SERVICIOS DE SALUD SUR E.S.E.","NOMBRE_DEL":"UNIDAD DE SERVICIOS DE SALUD NAZARETH","DIRECCION":"Corregimiento de Nazareth de Sumapaz","TELEFONO":"3108020460","CORREO_ELE":"subredsur@saludcapital.gov.co","TIPO_DE_PR":"Pública","CLASE_DE_P":"Instituciones Prestadoras de Servicios de Salud - IPS","CODIGO_LOC":20,"CODIGO_UPZ":0}},{"type":"Feature","id":72,"geometry":{"type":"Point","coordinates":[-74.153392952807025,4.6163925445547518]},"properties":{"OBJECTID":72,"ID":2471,"IDENTIFICA":"1100130296","CODIGO_DE":"01","NOMBRE_DE_":"Subred Integrada de Servicios de Salud Sur Occidente E.S.E","NOMBRE_DEL":"Unidad de Servicios de Salud Occidente de Kennedy","DIRECCION":"TV 74 F # 40 B 54 SUR","TELEFONO":"4480030 - 4480700","CORREO_ELE":"gerente@subredsuroccidente.gov.co","TIPO_DE_PR":"Pública","CLASE_DE_P":"Instituciones Prestadoras de Servicios de Salud - IPS","CODIGO_LOC":8,"CODIGO_UPZ":48}},{"type":"Feature","id":73,"geometry":{"type":"Point","coordinates":[-74.137805494693154,4.6063947653756214]},"properties":{"OBJECTID":73,"ID":2472,"IDENTIFICA":"1100130296","CODIGO_DE":"02","NOMBRE_DE_":"Subred Integrada de Servicios de Salud Sur Occidente E.S.E","NOMBRE_DEL":"Unidad de Servicios de Salud Mental Floralia","DIRECCION":"CALLE 37 D SUR # 68 H 50","TELEFONO":"4399090 ext 4016","CORREO_ELE":"gerente@subredsuroccidente.gov.co","TIPO_DE_PR":"Pública","CLASE_DE_P":"Instituciones Prestadoras de Servicios de Salud - IPS","CODIGO_LOC":8,"CODIGO_UPZ":45}},{"type":"Feature","id":74,"geometry":{"type":"Point","coordinates":[-74.148984650213265,4.6509488504089109]},"properties":{"OBJECTID":74,"ID":2473,"IDENTIFICA":"1100130296","CODIGO_DE":"03","NOMBRE_DE_":"Subred Integrada de Servicios de Salud Sur Occidente E.S.E","NOMBRE_DEL":"Unidad de Servicios de Salud Patio Bonito Tintal","DIRECCION":"CALLE 10 # 86 - 58","TELEFONO":"5550950","CORREO_ELE":"gerente@subredsuroccidente.gov.co","TIPO_DE_PR":"Pública","CLASE_DE_P":"Instituciones Prestadoras de Servicios de Salud - IPS","CODIGO_LOC":8,"CODIGO_UPZ":78}},{"type":"Feature","id":75,"geometry":{"type":"Point","coordinates":[-74.161090240980869,4.6344883383411251]},"properties":{"OBJECTID":75,"ID":2474,"IDENTIFICA":"1100130296","CODIGO_DE":"04","NOMBRE_DE_":"Subred Integrada de Servicios de Salud Sur Occidente E.S.E","NOMBRE_DEL":"Unidad de Servicios de Salud 71 Patio Bonito","DIRECCION":"Diagonal 38 sur No. 82 - 30","TELEFONO":"4547018","CORREO_ELE":"gerente@subredsuroccidente.gov.co","TIPO_DE_PR":"Pública","CLASE_DE_P":"Instituciones Prestadoras de Servicios de Salud - IPS","CODIGO_LOC":8,"CODIGO_UPZ":80}},{"type":"Feature","id":76,"geometry":{"type":"Point","coordinates":[-74.154930040326747,4.6325536052224807]},"properties":{"OBJECTID":76,"ID":2475,"IDENTIFICA":"1100130296","CODIGO_DE":"05","NOMBRE_DE_":"Subred Integrada de Servicios de Salud Sur Occidente E.S.E","NOMBRE_DEL":"Unidad de Servicios de Salud 10 Abastos","DIRECCION":"Carrera 80C No. 2 - 40","TELEFONO":"4126880","CORREO_ELE":"gerente@subredsuroccidente.gov.co","TIPO_DE_PR":"Pública","CLASE_DE_P":"Instituciones Prestadoras de Servicios de Salud - IPS","CODIGO_LOC":8,"CODIGO_UPZ":46}},{"type":"Feature","id":77,"geometry":{"type":"Point","coordinates":[-74.129819832940058,4.6019036831310727]},"properties":{"OBJECTID":77,"ID":2476,"IDENTIFICA":"1100130296","CODIGO_DE":"07","NOMBRE_DE_":"Subred Integrada de Servicios de Salud Sur Occidente E.S.E","NOMBRE_DEL":"Unidad de Servicios de Salud 26 Alcalá Muzú","DIRECCION":"Carrera 52 No. 37 - 05 sur","TELEFONO":"7280435","CORREO_ELE":"gerente@subredsuroccidente.gov.co","TIPO_DE_PR":"Pública","CLASE_DE_P":"Instituciones Prestadoras de Servicios de Salud - IPS","CODIGO_LOC":16,"CODIGO_UPZ":41}},{"type":"Feature","id":78,"geometry":{"type":"Point","coordinates":[-74.158479785274238,4.6230736599660567]},"properties":{"OBJECTID":78,"ID":2477,"IDENTIFICA":"1100130296","CODIGO_DE":"08","NOMBRE_DE_":"Subred Integrada de Servicios de Salud Sur Occidente E.S.E","NOMBRE_DEL":"Unidad de Servicios de Salud 30 Bomberos","DIRECCION":"Calle 40C sur No. 79 - 10","TELEFONO":"2732535","CORREO_ELE":"gerente@subredsuroccidente.gov.co","TIPO_DE_PR":"Pública","CLASE_DE_P":"Instituciones Prestadoras de Servicios de Salud - IPS","CODIGO_LOC":8,"CODIGO_UPZ":47}},{"type":"Feature","id":79,"geometry":{"type":"Point","coordinates":[-74.091549771070021,4.6227941810137354]},"properties":{"OBJECTID":79,"ID":2478,"IDENTIFICA":"1100130296","CODIGO_DE":"09","NOMBRE_DE_":"Subred Integrada de Servicios de Salud Sur Occidente E.S.E","NOMBRE_DEL":"Unidad de Servicios de Salud 35 Cundinamarca","DIRECCION":"Calle 19 A No. 34 - 94","TELEFONO":"3682246","CORREO_ELE":"gerente@subredsuroccidente.gov.co","TIPO_DE_PR":"Pública","CLASE_DE_P":"Instituciones Prestadoras de Servicios de Salud - IPS","CODIGO_LOC":16,"CODIGO_UPZ":108}},{"type":"Feature","id":80,"geometry":{"type":"Point","coordinates":[-74.107484110037603,4.6011153197196872]},"properties":{"OBJECTID":80,"ID":2479,"IDENTIFICA":"1100130296","CODIGO_DE":"10","NOMBRE_DE_":"Subred Integrada de Servicios de Salud Sur Occidente E.S.E","NOMBRE_DEL":"Unidad de Servicios de Salud 36 Asunción Bochica","DIRECCION":"Carrera 33 No. 1B - 27","TELEFONO":"7560505","CORREO_ELE":"gerente@subredsuroccidente.gov.co","TIPO_DE_PR":"Pública","CLASE_DE_P":"Instituciones Prestadoras de Servicios de Salud - IPS","CODIGO_LOC":16,"CODIGO_UPZ":40}},{"type":"Feature","id":81,"geometry":{"type":"Point","coordinates":[-74.151644278800234,4.635167033775331]},"properties":{"OBJECTID":81,"ID":2480,"IDENTIFICA":"1100130296","CODIGO_DE":"11","NOMBRE_DE_":"Subred Integrada de Servicios de Salud Sur Occidente E.S.E","NOMBRE_DEL":"Unidad de Servicios de Salud 37 Pio XII","DIRECCION":"Carrera 79D No. 6 -15","TELEFONO":"2928821","CORREO_ELE":"gerente@subredsuroccidente.gov.co","TIPO_DE_PR":"Pública","CLASE_DE_P":"Instituciones Prestadoras de Servicios de Salud - IPS","CODIGO_LOC":8,"CODIGO_UPZ":46}},{"type":"Feature","id":82,"geometry":{"type":"Point","coordinates":[-74.168714967737628,4.6454085771146127]},"properties":{"OBJECTID":82,"ID":2481,"IDENTIFICA":"1100130296","CODIGO_DE":"12","NOMBRE_DE_":"Subred Integrada de Servicios de Salud Sur Occidente E.S.E","NOMBRE_DEL":"Unidad de Servicios de Salud 50 Mexicana","DIRECCION":"Calle 34 BIS A Sur # 91 C 35 IN 1","TELEFONO":"2646806","CORREO_ELE":"gerente@subredsuroccidente.gov.co","TIPO_DE_PR":"Pública","CLASE_DE_P":"Instituciones Prestadoras de Servicios de Salud - IPS","CODIGO_LOC":8,"CODIGO_UPZ":79}},{"type":"Feature","id":83,"geometry":{"type":"Point","coordinates":[-74.13511489129688,4.6505809963540772]},"properties":{"OBJECTID":83,"ID":2482,"IDENTIFICA":"1100130296","CODIGO_DE":"13","NOMBRE_DE_":"Subred Integrada de Servicios de Salud Sur Occidente E.S.E","NOMBRE_DEL":"Unidad de Servicios de Salud 60 Visión de Colombia","DIRECCION":"KR 79 C # 13 A 40","TELEFONO":"4247920","CORREO_ELE":"gerente@subredsuroccidente.gov.co","TIPO_DE_PR":"Pública","CLASE_DE_P":"Instituciones Prestadoras de Servicios de Salud - IPS","CODIGO_LOC":8,"CODIGO_UPZ":46}},{"type":"Feature","id":84,"geometry":{"type":"Point","coordinates":[-74.136869221995013,4.6022468972687687]},"properties":{"OBJECTID":84,"ID":2483,"IDENTIFICA":"1100130296","CODIGO_DE":"14","NOMBRE_DE_":"Subred Integrada de Servicios de Salud Sur Occidente E.S.E","NOMBRE_DEL":"Unidad de Servicios de Salud 63 Alquería","DIRECCION":"Calle 38D sur No. 68 C - 48","TELEFONO":"2707812","CORREO_ELE":"gerente@subredsuroccidente.gov.co","TIPO_DE_PR":"Pública","CLASE_DE_P":"Instituciones Prestadoras de Servicios de Salud - IPS","CODIGO_LOC":8,"CODIGO_UPZ":45}},{"type":"Feature","id":85,"geometry":{"type":"Point","coordinates":[]},"properties":{"OBJECTID":85,"ID":2484,"IDENTIFICA":"1100130296","CODIGO_DE":"15","NOMBRE_DE_":"Subred Integrada de Servicios de Salud Sur Occidente E.S.E","NOMBRE_DEL":"Unidad de Servicios de Salud 65 Dindalito","DIRECCION":"Calle 42 A sur No. 90 - 00","TELEFONO":"2649625","CORREO_ELE":"gerente@subredsuroccidente.gov.co","TIPO_DE_PR":"Pública","CLASE_DE_P":"Instituciones Prestadoras de Servicios de Salud - IPS","CODIGO_LOC":8,"CODIGO_UPZ":82}},{"type":"Feature","id":86,"geometry":{"type":"Point","coordinates":[-74.171809767197672,4.6220346697884374]},"properties":{"OBJECTID":86,"ID":2485,"IDENTIFICA":"1100130296","CODIGO_DE":"16","NOMBRE_DE_":"Subred Integrada de Servicios de Salud Sur Occidente E.S.E","NOMBRE_DEL":"Unidad de Servicios de Salud 68 Britalia","DIRECCION":"Carrera 81 C No. 48 sur - 25","TELEFONO":"2655462","CORREO_ELE":"gerente@subredsuroccidente.gov.co","TIPO_DE_PR":"Pública","CLASE_DE_P":"Instituciones Prestadoras de Servicios de Salud - IPS","CODIGO_LOC":8,"CODIGO_UPZ":81}},{"type":"Feature","id":87,"geometry":{"type":"Point","coordinates":[-74.14344596425984,4.6101148098745348]},"properties":{"OBJECTID":87,"ID":2486,"IDENTIFICA":"1100130296","CODIGO_DE":"17","NOMBRE_DE_":"Subred Integrada de Servicios de Salud Sur Occidente E.S.E","NOMBRE_DEL":"Unidad de Servicios de Salud 72 Argelia","DIRECCION":"Carrera 72 G No. 39 - 95 sur","TELEFONO":"2388517","CORREO_ELE":"gerente@subredsuroccidente.gov.co","TIPO_DE_PR":"Pública","CLASE_DE_P":"Instituciones Prestadoras de Servicios de Salud - IPS","CODIGO_LOC":8,"CODIGO_UPZ":45}},{"type":"Feature","id":88,"geometry":{"type":"Point","coordinates":[-74.144334781656468,4.6180430192782858]},"properties":{"OBJECTID":88,"ID":2487,"IDENTIFICA":"1100130296","CODIGO_DE":"18","NOMBRE_DE_":"Subred Integrada de Servicios de Salud Sur Occidente E.S.E","NOMBRE_DEL":"Unidad de Servicios de Salud 79 Carvajal","DIRECCION":"Carrera 72 Q No. 35 B - 05 SUR","TELEFONO":"4506290","CORREO_ELE":"gerente@subredsuroccidente.gov.co","TIPO_DE_PR":"Pública","CLASE_DE_P":"Instituciones Prestadoras de Servicios de Salud - IPS","CODIGO_LOC":8,"CODIGO_UPZ":45}},{"type":"Feature","id":89,"geometry":{"type":"Point","coordinates":[-74.178646410938811,4.6143521178198448]},"properties":{"OBJECTID":89,"ID":2488,"IDENTIFICA":"1100130296","CODIGO_DE":"19","NOMBRE_DE_":"Subred Integrada de Servicios de Salud Sur Occidente E.S.E","NOMBRE_DEL":"Unidad de Servicios de Salud 91 Class","DIRECCION":"Calle 57B sur No. 80H No. 53","TELEFONO":"7804489","CORREO_ELE":"gerencia@subredsuroccidente.gov.co","TIPO_DE_PR":"Pública","CLASE_DE_P":"Instituciones Prestadoras de Servicios de Salud - IPS","CODIGO_LOC":8,"CODIGO_UPZ":81}},{"type":"Feature","id":90,"geometry":{"type":"Point","coordinates":[-74.161295326360232,4.6429548869076518]},"properties":{"OBJECTID":90,"ID":2489,"IDENTIFICA":"1100130296","CODIGO_DE":"20","NOMBRE_DE_":"Subred Integrada de Servicios de Salud Sur Occidente E.S.E","NOMBRE_DEL":"Unidad de Servicios de Salud 92 Patios","DIRECCION":"Calle 2A No. 88B - 47","TELEFONO":"4533984","CORREO_ELE":"gerente@subredsuroccidente.gov.co","TIPO_DE_PR":"Pública","CLASE_DE_P":"Instituciones Prestadoras de Servicios de Salud - IPS","CODIGO_LOC":8,"CODIGO_UPZ":82}},{"type":"Feature","id":91,"geometry":{"type":"Point","coordinates":[-74.169211429764218,4.6105823000572608]},"properties":{"OBJECTID":91,"ID":2490,"IDENTIFICA":"1100130296","CODIGO_DE":"21","NOMBRE_DE_":"Subred Integrada de Servicios de Salud Sur Occidente E.S.E","NOMBRE_DEL":"Unidad de Servicios de Salud 105 Catalina","DIRECCION":"Carrera 78ª No. 53ª - 47 Sur","TELEFONO":"2644787","CORREO_ELE":"gerente@subredsuroccidente.gov.co","TIPO_DE_PR":"Pública","CLASE_DE_P":"Instituciones Prestadoras de Servicios de Salud - IPS","CODIGO_LOC":8,"CODIGO_UPZ":48}},{"type":"Feature","id":92,"geometry":{"type":"Point","coordinates":[-74.120568020946834,4.6224072216147967]},"properties":{"OBJECTID":92,"ID":2491,"IDENTIFICA":"1100130296","CODIGO_DE":"22","NOMBRE_DE_":"Subred Integrada de Servicios de Salud Sur Occidente E.S.E","NOMBRE_DEL":"Unidad de Servicios de Salud 17 Trinidad Galán","DIRECCION":"Carrera 60 No. 4 - 15","TELEFONO":"2607876","CORREO_ELE":"gerente@subredsuroccidente.gov.co","TIPO_DE_PR":"Pública","CLASE_DE_P":"Instituciones Prestadoras de Servicios de Salud - IPS","CODIGO_LOC":16,"CODIGO_UPZ":43}},{"type":"Feature","id":93,"geometry":{"type":"Point","coordinates":[-74.185581993328739,4.6068095199642762]},"properties":{"OBJECTID":93,"ID":2492,"IDENTIFICA":"1100130296","CODIGO_DE":"23","NOMBRE_DE_":"Subred Integrada de Servicios de Salud Sur Occidente E.S.E","NOMBRE_DEL":"Unidad de Servicios de Salud Bosa","DIRECCION":"Calle 65D sur # 79C-90","TELEFONO":"5552426","CORREO_ELE":"gerente@subredsuroccidente.gov.co","TIPO_DE_PR":"Pública","CLASE_DE_P":"Instituciones Prestadoras de Servicios de Salud - IPS","CODIGO_LOC":7,"CODIGO_UPZ":85}},{"type":"Feature","id":94,"geometry":{"type":"Point","coordinates":[-74.185687533696523,4.6093701300794914]},"properties":{"OBJECTID":94,"ID":2493,"IDENTIFICA":"1100130296","CODIGO_DE":"24","NOMBRE_DE_":"Subred Integrada de Servicios de Salud Sur Occidente E.S.E","NOMBRE_DEL":"Unidad de Servicios de Salud Bosa Centro","DIRECCION":"Calle 65 sur No 80H-44","TELEFONO":"7764003","CORREO_ELE":"gerente@subredsuroccidente.gov.co","TIPO_DE_PR":"Pública","CLASE_DE_P":"Instituciones Prestadoras de Servicios de Salud - IPS","CODIGO_LOC":7,"CODIGO_UPZ":85}},{"type":"Feature","id":95,"geometry":{"type":"Point","coordinates":[-74.146177057420928,4.6717139412567565]},"properties":{"OBJECTID":95,"ID":2494,"IDENTIFICA":"1100130296","CODIGO_DE":"25","NOMBRE_DE_":"Subred Integrada de Servicios de Salud Sur Occidente E.S.E","NOMBRE_DEL":"Unidad de Servicios de Salud Fontibón","DIRECCION":"Carrera 99 No. 16i - 41","TELEFONO":"4860033","CORREO_ELE":"gerente@subredsuroccidente.gov.co","TIPO_DE_PR":"Pública","CLASE_DE_P":"Instituciones Prestadoras de Servicios de Salud - IPS","CODIGO_LOC":9,"CODIGO_UPZ":75}},{"type":"Feature","id":96,"geometry":{"type":"Point","coordinates":[-74.156652111624737,4.6888299872709291]},"properties":{"OBJECTID":96,"ID":2495,"IDENTIFICA":"1100130296","CODIGO_DE":"26","NOMBRE_DE_":"Subred Integrada de Servicios de Salud Sur Occidente E.S.E","NOMBRE_DEL":"Unidad de Servicios de Salud 48 San Pablo","DIRECCION":"Calle 18 A No 122 - 25","TELEFONO":"4860033","CORREO_ELE":"gerente@subredsuroccidente.gov.co","TIPO_DE_PR":"Pública","CLASE_DE_P":"Instituciones Prestadoras de Servicios de Salud - IPS","CODIGO_LOC":9,"CODIGO_UPZ":76}},{"type":"Feature","id":97,"geometry":{"type":"Point","coordinates":[-74.144952529721152,4.6882593296601032]},"properties":{"OBJECTID":97,"ID":2496,"IDENTIFICA":"1100130296","CODIGO_DE":"27","NOMBRE_DE_":"Subred Integrada de Servicios de Salud Sur Occidente E.S.E","NOMBRE_DEL":"Unidad de Servicios de Salud 49 Internacional","DIRECCION":"Calle 23 No 112 - 60","TELEFONO":"4860033","CORREO_ELE":"gerente@subredsuroccidente.gov.co","TIPO_DE_PR":"Pública","CLASE_DE_P":"Instituciones Prestadoras de Servicios de Salud - IPS","CODIGO_LOC":9,"CODIGO_UPZ":75}},{"type":"Feature","id":98,"geometry":{"type":"Point","coordinates":[-74.126944170307041,4.6840236399422759]},"properties":{"OBJECTID":98,"ID":2497,"IDENTIFICA":"1100130296","CODIGO_DE":"28","NOMBRE_DE_":"Subred Integrada de Servicios de Salud Sur Occidente E.S.E","NOMBRE_DEL":"Unidad de Servicios de Salud 50 Puerta De Teja","DIRECCION":"Carrera 96 No 25 G- 18","TELEFONO":"4860033","CORREO_ELE":"gerente@subredsuroccidente.gov.co","TIPO_DE_PR":"Pública","CLASE_DE_P":"Instituciones Prestadoras de Servicios de Salud - IPS","CODIGO_LOC":9,"CODIGO_UPZ":115}},{"type":"Feature","id":99,"geometry":{"type":"Point","coordinates":[-74.14235066999349,4.6727722402970855]},"properties":{"OBJECTID":99,"ID":2498,"IDENTIFICA":"1100130296","CODIGO_DE":"29","NOMBRE_DE_":"Subred Integrada de Servicios de Salud Sur Occidente E.S.E","NOMBRE_DEL":"Unidad de Servicios de Salud Centro Día","DIRECCION":"Carrera 97 No. 19-34","TELEFONO":"4860033","CORREO_ELE":"gerente@subredsuroccidente.gov.co","TIPO_DE_PR":"Pública","CLASE_DE_P":"Instituciones Prestadoras de Servicios de Salud - IPS","CODIGO_LOC":9,"CODIGO_UPZ":75}},{"type":"Feature","id":100,"geometry":{"type":"Point","coordinates":[-74.153713596566234,4.6726021402107696]},"properties":{"OBJECTID":100,"ID":2499,"IDENTIFICA":"1100130296","CODIGO_DE":"30","NOMBRE_DE_":"Subred Integrada de Servicios de Salud Sur Occidente E.S.E","NOMBRE_DEL":"Unidad de Servicios de Salud 51 Zona Franca","DIRECCION":"Carrera 106 No 15 A -32","TELEFONO":"4860033","CORREO_ELE":"gerente@subredsuroccidente.gov.co","TIPO_DE_PR":"Pública","CLASE_DE_P":"Instituciones Prestadoras de Servicios de Salud - IPS","CODIGO_LOC":9,"CODIGO_UPZ":77}},{"type":"Feature","id":101,"geometry":{"type":"Point","coordinates":[-74.171584370011416,4.6520727198823097]},"properties":{"OBJECTID":101,"ID":2500,"IDENTIFICA":"1100130296","CODIGO_DE":"31","NOMBRE_DE_":"Subred Integrada de Servicios de Salud Sur Occidente E.S.E","NOMBRE_DEL":"Unidad de Servicios de Salud Terminal Aéreo","DIRECCION":"Aeropuerto El Dorado Muelle Internacional, 2° piso, salida 5","TELEFONO":"4860033","CORREO_ELE":"gerente@subredsuroccidente.gov.co","TIPO_DE_PR":"Pública","CLASE_DE_P":"Instituciones Prestadoras de Servicios de Salud - IPS","CODIGO_LOC":8,"CODIGO_UPZ":79}},{"type":"Feature","id":102,"geometry":{"type":"Point","coordinates":[-74.114471633915571,4.6557107087526415]},"properties":{"OBJECTID":102,"ID":2501,"IDENTIFICA":"1100130296","CODIGO_DE":"32","NOMBRE_DE_":"Subred Integrada de Servicios de Salud Sur Occidente E.S.E","NOMBRE_DEL":"Unidad de Servicios de Salud Terminal Terrestre","DIRECCION":"Dg. 23 #69-60 Módulo Verde - Local 416","TELEFONO":"4860033","CORREO_ELE":"gerente@subredsuroccidente.gov.co","TIPO_DE_PR":"Pública","CLASE_DE_P":"Instituciones Prestadoras de Servicios de Salud - IPS","CODIGO_LOC":9,"CODIGO_UPZ":110}},{"type":"Feature","id":103,"geometry":{"type":"Point","coordinates":[-74.143911714683526,4.6783301541418432]},"properties":{"OBJECTID":103,"ID":2502,"IDENTIFICA":"1100130296","CODIGO_DE":"33","NOMBRE_DE_":"Subred Integrada de Servicios de Salud Sur Occidente E.S.E","NOMBRE_DEL":"Unidad de Servicios de Salud Boston","DIRECCION":"Carrera 104 No. 20C - 31","TELEFONO":"4860033","CORREO_ELE":"gerente@subredsuroccidente.gov.co","TIPO_DE_PR":"Pública","CLASE_DE_P":"Instituciones Prestadoras de Servicios de Salud - IPS","CODIGO_LOC":9,"CODIGO_UPZ":75}},{"type":"Feature","id":104,"geometry":{"type":"Point","coordinates":[-74.191739720022554,4.5988830969906882]},"properties":{"OBJECTID":104,"ID":2503,"IDENTIFICA":"1100130296","CODIGO_DE":"34","NOMBRE_DE_":"Subred Integrada de Servicios de Salud Sur Occidente E.S.E","NOMBRE_DEL":"Unidad de Servicios de Salud Pablo VI Bosa","DIRECCION":"Calle 70 A sur N° 77 I - 26","TELEFONO":"7799800","CORREO_ELE":"gerente@subredsuroccidente.gov.co","TIPO_DE_PR":"Pública","CLASE_DE_P":"Instituciones Prestadoras de Servicios de Salud - IPS","CODIGO_LOC":7,"CODIGO_UPZ":85}},{"type":"Feature","id":105,"geometry":{"type":"Point","coordinates":[-74.206863769620725,4.6168551103786051]},"properties":{"OBJECTID":105,"ID":2504,"IDENTIFICA":"1100130296","CODIGO_DE":"40","NOMBRE_DE_":"Subred Integrada de Servicios de Salud Sur Occidente E.S.E","NOMBRE_DEL":"Unidad de Servicios de Salud San Bernardino","DIRECCION":"Carrera 87 B No79 -97 SUR","TELEFONO":"7799800","CORREO_ELE":"gerente@subredsuroccidente.gov.co","TIPO_DE_PR":"Pública","CLASE_DE_P":"Instituciones Prestadoras de Servicios de Salud - IPS","CODIGO_LOC":7,"CODIGO_UPZ":87}},{"type":"Feature","id":106,"geometry":{"type":"Point","coordinates":[-74.190160888689903,4.6308964766959226]},"properties":{"OBJECTID":106,"ID":2505,"IDENTIFICA":"1100130296","CODIGO_DE":"41","NOMBRE_DE_":"Subred Integrada de Servicios de Salud Sur Occidente E.S.E","NOMBRE_DEL":"Unidad de Servicios de Salud Cabañas","DIRECCION":"Calle 57 Sur # 89B - 19","TELEFONO":"7799800","CORREO_ELE":"gerente@subredsuroccidente.gov.co","TIPO_DE_PR":"Pública","CLASE_DE_P":"Instituciones Prestadoras de Servicios de Salud - IPS","CODIGO_LOC":7,"CODIGO_UPZ":86}},{"type":"Feature","id":107,"geometry":{"type":"Point","coordinates":[-74.184332409819078,4.6310115002371512]},"properties":{"OBJECTID":107,"ID":2506,"IDENTIFICA":"1100130296","CODIGO_DE":"42","NOMBRE_DE_":"Subred Integrada de Servicios de Salud Sur Occidente E.S.E","NOMBRE_DEL":"Unidad de Servicios de Salud El Porvenir","DIRECCION":"Carrera 87 # 53B - 51 SUR","TELEFONO":"7799800","CORREO_ELE":"gerente@subredsuroccidente.gov.co","TIPO_DE_PR":"Pública","CLASE_DE_P":"Instituciones Prestadoras de Servicios de Salud - IPS","CODIGO_LOC":7,"CODIGO_UPZ":84}},{"type":"Feature","id":108,"geometry":{"type":"Point","coordinates":[-74.197499979932388,4.6006759296800812]},"properties":{"OBJECTID":108,"ID":2507,"IDENTIFICA":"1100130296","CODIGO_DE":"43","NOMBRE_DE_":"Subred Integrada de Servicios de Salud Sur Occidente E.S.E","NOMBRE_DEL":"Unidad de Servicios de Salud José María Carbonell","DIRECCION":"Diagonal 71C BIS SUR #77G-41","TELEFONO":"7799800","CORREO_ELE":"gerente@subredsuroccidente.gov.co","TIPO_DE_PR":"Pública","CLASE_DE_P":"Instituciones Prestadoras de Servicios de Salud - IPS","CODIGO_LOC":7,"CODIGO_UPZ":85}},{"type":"Feature","id":109,"geometry":{"type":"Point","coordinates":[-74.17864573001583,4.5984953903209371]},"properties":{"OBJECTID":109,"ID":2508,"IDENTIFICA":"1100130296","CODIGO_DE":"44","NOMBRE_DE_":"Subred Integrada de Servicios de Salud Sur Occidente E.S.E","NOMBRE_DEL":"Unidad de Servicios de Salud La Estación","DIRECCION":"Calle 60B SUR # 77G - 51","TELEFONO":"7799800","CORREO_ELE":"gerente@subredsuroccidente.gov.co","TIPO_DE_PR":"Pública","CLASE_DE_P":"Instituciones Prestadoras de Servicios de Salud - IPS","CODIGO_LOC":7,"CODIGO_UPZ":85}},{"type":"Feature","id":110,"geometry":{"type":"Point","coordinates":[-74.197939988233287,4.610008866868256]},"properties":{"OBJECTID":110,"ID":2509,"IDENTIFICA":"1100130296","CODIGO_DE":"45","NOMBRE_DE_":"Subred Integrada de Servicios de Salud Sur Occidente E.S.E","NOMBRE_DEL":"Unidad de Servicios de Salud Laureles","DIRECCION":"Calle 73 A SUR # 80 N -39","TELEFONO":"7799800","CORREO_ELE":"gerente@subredsuroccidente.gov.co","TIPO_DE_PR":"Pública","CLASE_DE_P":"Instituciones Prestadoras de Servicios de Salud - IPS","CODIGO_LOC":7,"CODIGO_UPZ":85}},{"type":"Feature","id":111,"geometry":{"type":"Point","coordinates":[-74.165404125248372,4.6001872088116667]},"properties":{"OBJECTID":111,"ID":2510,"IDENTIFICA":"1100130296","CODIGO_DE":"46","NOMBRE_DE_":"Subred Integrada de Servicios de Salud Sur Occidente E.S.E","NOMBRE_DEL":"Unidad de Servicios de Salud Olarte","DIRECCION":"Carrera 72 A BIS # 57 - 13 SUR","TELEFONO":"7799800","CORREO_ELE":"gerente@subredsuroccidente.gov.co","TIPO_DE_PR":"Pública","CLASE_DE_P":"Instituciones Prestadoras de Servicios de Salud - IPS","CODIGO_LOC":7,"CODIGO_UPZ":49}},{"type":"Feature","id":112,"geometry":{"type":"Point","coordinates":[-74.193733767950903,4.6120976723612213]},"properties":{"OBJECTID":112,"ID":2511,"IDENTIFICA":"1100130296","CODIGO_DE":"47","NOMBRE_DE_":"Subred Integrada de Servicios de Salud Sur Occidente E.S.E","NOMBRE_DEL":"Unidad de Servicios de Salud Palestina","DIRECCION":"Calle 70 A Sur # 81G-13","TELEFONO":"7799800","CORREO_ELE":"gerente@subredsuroccidente.gov.co","TIPO_DE_PR":"Pública","CLASE_DE_P":"Instituciones Prestadoras de Servicios de Salud - IPS","CODIGO_LOC":7,"CODIGO_UPZ":85}},{"type":"Feature","id":113,"geometry":{"type":"Point","coordinates":[-74.188100776858917,4.6028339784123453]},"properties":{"OBJECTID":113,"ID":2512,"IDENTIFICA":"1100130296","CODIGO_DE":"48","NOMBRE_DE_":"Subred Integrada de Servicios de Salud Sur Occidente E.S.E","NOMBRE_DEL":"Unidad de Servicios de Salud Piamonte","DIRECCION":"Calle 68 Sur #78H-20","TELEFONO":"7799800","CORREO_ELE":"gerente@subredsuroccidente.gov.co","TIPO_DE_PR":"Pública","CLASE_DE_P":"Instituciones Prestadoras de Servicios de Salud - IPS","CODIGO_LOC":7,"CODIGO_UPZ":85}},{"type":"Feature","id":114,"geometry":{"type":"Point","coordinates":[-74.146712780317017,4.5999203677922775]},"properties":{"OBJECTID":114,"ID":2513,"IDENTIFICA":"1100130296","CODIGO_DE":"49","NOMBRE_DE_":"Subred Integrada de Servicios de Salud Sur Occidente E.S.E","NOMBRE_DEL":"Unidad de Servicios de Salud Nuevas Delicias","DIRECCION":"Transversal 72b No. 44D - 21 Sur","TELEFONO":"7799800","CORREO_ELE":"gerente@subredsuroccidente.gov.co","TIPO_DE_PR":"Pública","CLASE_DE_P":"Instituciones Prestadoras de Servicios de Salud - IPS","CODIGO_LOC":8,"CODIGO_UPZ":45}},{"type":"Feature","id":115,"geometry":{"type":"Point","coordinates":[-74.148663827689333,4.6232908302486218]},"properties":{"OBJECTID":115,"ID":2514,"IDENTIFICA":"1100130296","CODIGO_DE":"51","NOMBRE_DE_":"Subred Integrada de Servicios de Salud Sur Occidente E.S.E","NOMBRE_DEL":"Unidad de Servicios de Salud 29 Kennedy","DIRECCION":"Cra 78 #35 71 Sur IN 1","TELEFONO":"4480030 ext 44458","CORREO_ELE":"subredsuroccidente@saludcapital.gov.co","TIPO_DE_PR":"Pública","CLASE_DE_P":"Instituciones Prestadoras de Servicios de Salud - IPS","CODIGO_LOC":8,"CODIGO_UPZ":47}}]}